IRIDIUM 106             
1 41917U 17003A   23305.61557339  .00000142  00000+0  43523-4 0  9992
2 41917  86.3941 129.1591 0002068  95.2886 264.8546 14.34218859355819
IRIDIUM 103             
1 41918U 17003B   23305.60290335  .00000142  00000+0  43696-4 0  9993
2 41918  86.3940 129.0670 0001727  89.0660 271.0733 14.34217801355834
IRIDIUM 109             
1 41919U 17003C   23305.60925256  .00000142  00000+0  43537-4 0  9995
2 41919  86.3942 129.1079 0002060  82.3452 277.7978 14.34217680355803
IRIDIUM 102             
1 41920U 17003D   23305.57754514  .00000134  00000+0  40934-4 0  9999
2 41920  86.3941 129.0652 0002186  84.0818 276.0627 14.34213437355881
IRIDIUM 105             
1 41921U 17003E   23305.82729495  .00000302  00000+0  10089-3 0  9992
2 41921  86.3932  97.3678 0001986  92.6766 267.4657 14.34212360357772
IRIDIUM 104             
1 41922U 17003F   23305.59021788  .00000140  00000+0  42794-4 0  9996
2 41922  86.3942 129.0880 0001889  85.1075 275.0336 14.34217015355874
IRIDIUM 114             
1 41923U 17003G   23305.59655002  .00000439  00000+0  14970-3 0  9994
2 41923  86.3942 129.0718 0002292  96.7668 263.3789 14.34216918355851
IRIDIUM 108             
1 41924U 17003H   23305.69460385  .00000267  00000+0  88407-4 0  9990
2 41924  86.3926  97.3627 0002006  99.8960 260.2462 14.34220773357740
